{"type":"Topology","arcs":[[[30160,258],[51,-20],[40,-40],[79,-99],[12,-46],[-45,-31],[-112,-22],[-95,28],[-61,84],[52,99],[79,47]],[[31025,9127],[-7,-89],[11,-116],[-4,-107],[-51,-3],[-70,100],[-8,57],[17,35],[112,123]],[[30136,54457],[-80,0],[-65,20],[-71,47],[-43,50],[21,26],[238,-117],[0,-26]],[[23038,3163],[73,-3],[76,-20],[61,-41],[24,-64],[2,-85],[-27,-73],[-119,15],[-73,39],[-152,-13],[-51,45],[29,32],[27,129],[31,28],[99,11]],[[32537,7496],[-20,-70],[-41,-31],[-44,15],[-36,62],[2,74],[40,25],[53,-18],[46,-57]],[[29610,8173],[-13,-78],[-56,-29],[-72,16],[-56,63],[-20,102],[56,16],[88,-37],[73,-53]],[[26372,11220],[-95,61],[-20,39],[37,14],[31,-64],[47,-50]],[[18495,48567],[24,5],[160,-175],[-184,170]],[[23085,13062],[50,8],[10,-23],[-36,-78],[10,-106],[-25,-41],[-41,2],[-27,39],[-5,52],[17,80],[47,67]]],"transform":{"scale":[0.0002616096748041541,0.000237953012569865],"translate":[-165.82461378378804,-21.93889334322961]},"objects":{"features":{"type":"GeometryCollection","geometries":[{"arcs":[[0]],"type":"Polygon","properties":{"iso_a2":"CK","iso_3166_2":"CK-X03~","type":"","type_en":"","name_en":"Mangaia","name":"Mangaia","featurecla":"Admin-1 states provinces"}},{"arcs":[[1]],"type":"Polygon","properties":{"iso_a2":"CK","iso_3166_2":"CK-X05~","type":"","type_en":"","name_en":"Mitiaro","name":"Mitiaro","featurecla":"Admin-1 states provinces"}},{"arcs":[[2]],"type":"Polygon","properties":{"iso_a2":"CK","iso_3166_2":"CK-X11~","type":"","type_en":"","name_en":"Penrhyn Atoll","name":"Penrhyn","featurecla":"Admin-1 states provinces"}},{"arcs":[[3]],"type":"Polygon","properties":{"iso_a2":"CK","iso_3166_2":"CK-X04~","type":"","type_en":"","name_en":"Rarotonga","name":"Rarotonga","featurecla":"Admin-1 states provinces"}},{"arcs":[[4]],"type":"Polygon","properties":{"iso_a2":"CK","iso_3166_2":"CK-X06~","type":"","type_en":"","name_en":"Mauke","name":"Mauke","featurecla":"Admin-1 states provinces"}},{"arcs":[[5]],"type":"Polygon","properties":{"iso_a2":"CK","iso_3166_2":"CK-X01~","type":"","type_en":"","name_en":"Atiu","name":"Atiu","featurecla":"Admin-1 states provinces"}},{"arcs":[[6]],"type":"Polygon","properties":{"iso_a2":"CK","iso_3166_2":"CK-X02~","type":"","type_en":"","name_en":"Aitutaki","name":"Aitutaki","featurecla":"Admin-1 states provinces"}},{"type":null,"properties":{"iso_a2":"CK","iso_3166_2":"CK-X08~","type":"","type_en":"","name_en":"Pukapuka","name":"Pukapuka","featurecla":"Admin-1 states provinces"}},{"arcs":[[7]],"type":"Polygon","properties":{"iso_a2":"CK","iso_3166_2":"CK-X10~","type":"","type_en":"","name_en":"Manihiki","name":"Manihiki","featurecla":"Admin-1 states provinces"}},{"type":null,"properties":{"iso_a2":"CK","iso_3166_2":"CK-X09~","type":"","type_en":"","name_en":"Rakahanga","name":"Rakahanga","featurecla":"Admin-1 states provinces"}},{"arcs":[[8]],"type":"Polygon","properties":{"iso_a2":"CK","iso_3166_2":"CK-X07~","type":"","type_en":"","name_en":"Palmerston Island","name":"Palmerston","featurecla":"Admin-1 states provinces"}}]}}}