{"type":"Topology","arcs":[[[828,106],[-17,47]],[[811,153],[102,-10],[63,27]],[[976,170],[-47,-48],[-101,-16]],[[1020,0],[-160,14],[-32,92]],[[976,170],[44,-170]],[[1120,143],[-5,-65],[-32,-62],[-63,-16]],[[976,170],[56,18],[88,-45]],[[859,337],[46,52],[72,-1],[62,-23],[47,-49],[29,-83],[5,-90]],[[976,170],[-59,121],[-58,46]],[[811,153],[26,160],[22,24]],[[15,1062],[13,55],[23,20],[83,38]],[[134,1175],[13,-32],[2,-81],[35,-52]],[[184,1010],[-98,23],[-71,29]],[[103,872],[-103,121],[15,69]],[[184,1010],[-40,-51],[-41,-87]],[[309,749],[-59,26],[-147,97]],[[184,1010],[71,-63]],[[255,947],[29,-54],[85,-18]],[[369,875],[-14,-52],[-26,-15],[-20,-59]],[[475,725],[-115,2],[-51,22]],[[369,875],[30,0]],[[399,875],[25,-2]],[[424,873],[14,-45]],[[438,828],[9,-49],[28,-54]],[[622,754],[49,-97],[103,-58],[42,-63],[1,-62],[-78,-31],[-43,31],[-37,143],[-69,45],[-45,54],[-70,9]],[[438,828],[86,-30],[66,-47],[32,3]],[[544,915],[29,-32],[49,-129]],[[424,873],[23,31],[69,-4],[28,15]],[[452,1003],[35,-24],[57,-64]],[[399,875],[-1,49],[29,64],[25,15]],[[316,1087],[136,-84]],[[255,947],[42,66],[-5,27],[24,47]],[[134,1175],[10,22],[172,-110]]],"transform":{"scale":[0.00028957278458945676,0.000263504269965613],"translate":[-62.86120685074211,17.10050972157636]},"objects":{"features":{"type":"GeometryCollection","geometries":[{"arcs":[[0,1,2]],"type":"Polygon","properties":{"iso_a2":"KN","iso_3166_2":"KN-10","type":"Parish","type_en":"Parish","name_en":"Saint Paul Charlestown","name":"Saint Paul Charlestown","featurecla":"Admin-1 states provinces"}},{"arcs":[[3,-3,4]],"type":"Polygon","properties":{"iso_a2":"KN","iso_3166_2":"KN-07","type":"Parish","type_en":"Parish","name_en":"Saint John Figtree","name":"Saint John Figtree","featurecla":"Admin-1 states provinces"}},{"arcs":[[5,-5,6]],"type":"Polygon","properties":{"iso_a2":"KN","iso_3166_2":"KN-04","type":"Parish","type_en":"Parish","name_en":"Saint George Gingerland","name":"Saint George Gingerland","featurecla":"Admin-1 states provinces"}},{"arcs":[[7,-7,8]],"type":"Polygon","properties":{"iso_a2":"KN","iso_3166_2":"KN-05","type":"Parish","type_en":"Parish","name_en":"Saint James Windward","name":"Saint James Windward","featurecla":"Admin-1 states provinces"}},{"arcs":[[9,-9,-2]],"type":"Polygon","properties":{"iso_a2":"KN","iso_3166_2":"KN-12","type":"Parish","type_en":"Parish","name_en":"Saint Thomas Lowland","name":"Saint Thomas Lowland","featurecla":"Admin-1 states provinces"}},{"arcs":[[10,11,12]],"type":"Polygon","properties":{"iso_a2":"KN","iso_3166_2":"KN-09","type":"Parish","type_en":"Parish","name_en":"Saint Paul Capisterre","name":"Saint Paul Capesterre","featurecla":"Admin-1 states provinces"}},{"arcs":[[13,-13,14]],"type":"Polygon","properties":{"iso_a2":"KN","iso_3166_2":"KN-02","type":"Parish","type_en":"Parish","name_en":"Saint Anne Sandy Point","name":"Saint Anne Sandy Point","featurecla":"Admin-1 states provinces"}},{"arcs":[[15,-15,16,17,18]],"type":"Polygon","properties":{"iso_a2":"KN","iso_3166_2":"KN-13","type":"Parish","type_en":"Parish","name_en":"Saint Thomas Middle Island","name":"Saint Thomas Middle Island","featurecla":"Admin-1 states provinces"}},{"arcs":[[19,-19,20,21,22,23]],"type":"Polygon","properties":{"iso_a2":"KN","iso_3166_2":"KN-14","type":"Parish","type_en":"Parish","name_en":"Trinity Palmetto Point","name":"Trinity Palmetto Point","featurecla":"Admin-1 states provinces"}},{"arcs":[[24,-24,25]],"type":"Polygon","properties":{"iso_a2":"KN","iso_3166_2":"KN-03","type":"Parish","type_en":"Parish","name_en":"Saint George Basseterre","name":"Saint George Basseterre","featurecla":"Admin-1 states provinces"}},{"arcs":[[26,-26,-23,27]],"type":"Polygon","properties":{"iso_a2":"KN","iso_3166_2":"KN-11","type":"Parish","type_en":"Parish","name_en":"Saint Peter Basseterre","name":"Saint Peter Basseterre","featurecla":"Admin-1 states provinces"}},{"arcs":[[28,-28,-22,29]],"type":"Polygon","properties":{"iso_a2":"KN","iso_3166_2":"KN-08","type":"Parish","type_en":"Parish","name_en":"Saint Mary Cayon","name":"Saint Mary Cayon","featurecla":"Admin-1 states provinces"}},{"arcs":[[30,-30,-21,-18,31]],"type":"Polygon","properties":{"iso_a2":"KN","iso_3166_2":"KN-01","type":"Parish","type_en":"Parish","name_en":"Christ Church Nichola Town","name":"Christ Church Nichola Town","featurecla":"Admin-1 states provinces"}},{"arcs":[[32,-32,-17,-12]],"type":"Polygon","properties":{"iso_a2":"KN","iso_3166_2":"KN-06","type":"Parish","type_en":"Parish","name_en":"Saint John Capisterre","name":"Saint John Capesterre","featurecla":"Admin-1 states provinces"}}]}}}