{"type":"Topology","arcs":[[[2904,1170],[197,-96]],[[3101,1074],[-57,-49],[-11,-40]],[[3033,985],[-91,-13]],[[2942,972],[-4,89],[-79,63]],[[2859,1124],[45,46]],[[2810,1203],[94,-33]],[[2859,1124],[-34,-37]],[[2825,1087],[-42,-26]],[[2783,1061],[-76,73]],[[2707,1134],[46,43]],[[2753,1177],[57,26]],[[2783,1491],[19,-47],[11,-119],[-3,-122]],[[2753,1177],[4,39],[-87,24],[-38,33]],[[2632,1273],[30,99],[121,119]],[[2704,1560],[56,-23],[23,-46]],[[2632,1273],[-38,-24]],[[2594,1249],[-49,53],[-4,40]],[[2541,1342],[30,30],[-15,63]],[[2556,1435],[4,33],[60,13],[84,79]],[[2393,1755],[117,-116],[194,-79]],[[2556,1435],[-68,-7],[-34,10],[-12,53],[-68,56]],[[2374,1547],[19,208]],[[2166,1950],[60,-30],[167,-165]],[[2374,1547],[-64,-3]],[[2310,1544],[-57,-40],[-8,-116],[34,-39]],[[2279,1349],[-26,-43],[15,-43],[-30,-17]],[[2238,1246],[-49,-10],[-50,27]],[[2139,1263],[-26,135],[-15,33],[-38,7]],[[2060,1438],[-42,66],[12,53],[-16,46],[8,50],[144,297]],[[1889,2013],[194,-26],[83,-37]],[[2060,1438],[-46,-56],[-34,59],[-53,50],[-45,13],[-68,-17],[-8,-29],[57,-7],[11,-36],[57,-37],[8,-26],[-68,-60]],[[1871,1292],[-65,20],[-30,30],[-15,112],[-23,30],[-91,17],[0,33],[34,63],[-64,36]],[[1617,1633],[-15,56],[3,53],[27,23],[68,23],[53,43],[87,30],[49,152]],[[1340,1501],[-22,261],[-50,191],[-90,123],[109,112],[106,76],[122,46],[132,14],[0,-90],[-76,-16],[-49,-30],[-110,-112],[477,-63]],[[1617,1633],[-15,-27],[-57,-6],[-30,-30],[-69,-36],[-106,-33]],[[1352,1197],[0,138],[-12,166]],[[1871,1292],[7,-36]],[[1878,1256],[-197,-33],[-26,-33],[-61,13],[-60,-16],[-46,-53],[-30,3],[-34,43],[-31,-10],[-41,27]],[[1541,764],[-42,62],[-121,76],[-26,57],[0,238]],[[1878,1256],[76,-93]],[[1954,1163],[-15,-76]],[[1939,1087],[-110,-13],[-23,-33],[4,-49],[53,-20]],[[1863,972],[19,-23],[68,-4]],[[1950,945],[30,-188]],[[1980,757],[-30,-46],[-53,-10],[-68,13]],[[1829,714],[-46,93],[-136,-14],[-60,4],[-46,-33]],[[1749,463],[-64,43],[-144,258]],[[1829,714],[-4,-40],[-34,-72],[-30,-30],[-12,-109]],[[2086,258],[-37,13],[-300,192]],[[1980,757],[57,-20],[102,-53],[53,23],[38,57],[87,3],[42,-40],[23,17]],[[2382,744],[53,-30]],[[2435,714],[7,-46],[-72,-80],[-41,-33]],[[2329,555],[-27,-13],[-30,-83]],[[2272,459],[-53,-16],[-30,-33],[0,-56],[-38,0],[-34,-27],[-31,-69]],[[2298,182],[-212,76]],[[2272,459],[91,-26],[49,10]],[[2412,443],[-15,-50],[15,-43],[-45,-46],[-50,-69],[-19,-53]],[[2673,99],[-212,27],[-163,56]],[[2412,443],[80,7]],[[2492,450],[60,-50]],[[2552,400],[-34,-69],[57,-43],[72,46],[53,-27],[30,30]],[[2730,337],[38,10]],[[2768,347],[30,-112],[-45,-30],[-68,20],[11,-76],[-23,-50]],[[3037,337],[-68,-86],[-42,-102],[0,-149],[-136,63],[-38,26],[-80,10]],[[2768,347],[38,3],[26,60],[65,23],[11,33]],[[2908,466],[64,-16],[42,-53],[23,-60]],[[3253,489],[-34,-142],[-118,73],[-64,-83]],[[2908,466],[-4,60]],[[2904,526],[50,-4],[22,20],[49,-7],[50,-33],[30,37]],[[3105,539],[45,-27],[103,-23]],[[3211,869],[19,-36],[34,-298],[-11,-46]],[[3105,539],[-15,26],[7,53],[-37,103]],[[3060,721],[45,29],[34,66],[72,53]],[[3169,942],[42,-73]],[[3060,721],[-69,6],[-26,33],[-57,17]],[[2908,777],[34,99],[-23,10]],[[2919,886],[23,86]],[[3033,985],[30,-53],[42,-23],[64,33]],[[3101,1074],[68,-132]],[[95,2757],[-84,62],[27,129],[-30,133],[-8,102]],[[0,3183],[68,-63],[91,-46],[34,17],[15,-43],[31,-20]],[[239,3028],[-12,-56],[-30,-30],[0,-46],[-102,-139]],[[223,2681],[-75,33],[-53,43]],[[239,3028],[60,-7]],[[299,3021],[27,-33],[56,-13]],[[382,2975],[61,-116]],[[443,2859],[0,-76]],[[443,2783],[-79,20],[-88,-60],[-53,-62]],[[420,2601],[-102,30],[-95,50]],[[443,2783],[45,-40]],[[488,2743],[-3,-23]],[[485,2720],[-57,-89],[-8,-30]],[[765,2595],[-114,-30],[-159,13],[-72,23]],[[485,2720],[94,-6],[65,-43],[79,-40],[27,3]],[[750,2634],[15,-39]],[[992,2704],[-193,-103],[-34,-6]],[[750,2634],[38,53],[3,53],[34,63]],[[825,2803],[72,-36],[69,0]],[[966,2767],[26,-63]],[[1166,2958],[118,-142],[-106,-86],[-148,-10],[-38,-16]],[[966,2767],[68,13],[22,30],[8,86],[30,9],[72,53]],[[897,3180],[220,-162],[49,-60]],[[825,2803],[19,145],[27,14],[0,135],[26,83]],[[754,3259],[87,-40],[56,-39]],[[825,2803],[-79,59],[-87,-19],[-49,10]],[[610,2853],[3,33],[-41,66]],[[572,2952],[30,26],[-8,79],[31,40],[41,23],[50,4],[0,95],[38,40]],[[424,3279],[197,33],[133,-53]],[[572,2952],[-49,0],[-46,43]],[[477,2995],[-7,69],[-19,33],[-46,-3],[-7,135],[26,50]],[[250,3249],[174,30]],[[477,2995],[-83,-4],[-12,-16]],[[299,3021],[-4,79],[-19,60],[-30,43],[4,46]],[[0,3183],[102,40],[148,26]],[[610,2853],[-8,-60],[-61,0],[-22,-23]],[[519,2770],[0,40],[-49,49],[-27,0]],[[519,2770],[-31,-27]],[[2139,1263],[-15,-60],[19,-69]],[[2143,1134],[-30,3],[-80,53],[-79,-27]],[[2238,1246],[19,-40]],[[2257,1206],[-23,-76]],[[2234,1130],[-91,4]],[[2234,1130],[23,-39],[76,-30]],[[2333,1061],[-27,-73]],[[2306,988],[-148,-10],[-30,-33],[-42,-10],[-87,20],[-49,-10]],[[1950,945],[-15,57]],[[1935,1002],[4,85]],[[1935,1002],[-61,-10],[-11,-20]],[[2306,988],[-27,-59],[31,-76],[41,-7],[27,-26],[4,-76]],[[2333,1061],[53,-50],[53,-9]],[[2439,1002],[75,-27]],[[2514,975],[42,-73]],[[2556,902],[-30,-46]],[[2526,856],[-31,-36],[-60,-106]],[[2541,1342],[-84,-20],[-71,13]],[[2386,1335],[-8,57],[-23,39],[-7,56],[-38,20],[0,37]],[[2386,1335],[-16,-29]],[[2370,1306],[-30,29],[-61,14]],[[2594,1249],[-23,-52]],[[2571,1197],[-83,-4],[-31,-13]],[[2457,1180],[-83,26]],[[2374,1206],[-4,100]],[[2374,1206],[-68,-26]],[[2306,1180],[-49,26]],[[2457,1180],[38,-56],[-22,-30]],[[2473,1094],[-16,-10],[-18,-82]],[[2333,1061],[7,43],[-34,76]],[[2473,1094],[68,-23],[38,-43]],[[2579,1028],[-50,-23],[-15,-30]],[[2579,1028],[38,-3],[45,26]],[[2662,1051],[4,-46]],[[2666,1005],[-42,-27],[-15,-79],[-53,3]],[[2666,1005],[34,-56]],[[2700,949],[-4,-73],[-23,-76],[-38,-53]],[[2635,747],[-34,0],[-60,40],[-15,69]],[[2635,747],[12,-56]],[[2647,691],[0,-93]],[[2647,598],[15,-46],[0,-69],[61,-57]],[[2723,426],[45,-79]],[[2730,337],[-79,103],[-42,23]],[[2609,463],[-8,43],[-64,66],[-30,-27]],[[2507,545],[-76,37],[-68,-47],[-34,20]],[[2507,545],[11,-33],[-26,-62]],[[2609,463],[-57,-63]],[[2723,426],[18,24],[12,89],[23,53]],[[2776,592],[0,56]],[[2776,648],[11,23]],[[2787,671],[42,-13],[75,-132]],[[2787,671],[45,43]],[[2832,714],[27,46],[49,17]],[[2832,714],[-3,63],[-23,30],[-42,13]],[[2764,820],[46,59]],[[2810,879],[109,7]],[[2776,648],[-99,23],[-30,20]],[[2647,691],[76,56],[41,73]],[[2776,592],[-129,6]],[[2700,949],[64,69]],[[2764,1018],[46,-63]],[[2810,955],[-27,-53],[27,-23]],[[2707,1134],[-34,26],[-72,0]],[[2601,1160],[-30,37]],[[2677,1104],[30,30]],[[2783,1061],[-19,-43]],[[2662,1051],[15,53]],[[2677,1104],[-76,-7]],[[2601,1097],[0,63]],[[2825,1087],[49,-49]],[[2874,1038],[-64,-83]],[[2874,1038],[68,-66]],[[2579,1028],[22,69]]],"transform":{"scale":[0.00011749120351627689,0.00008283363536297433],"translate":[14.183616597688854,35.80114631539277]},"objects":{"features":{"type":"GeometryCollection","geometries":[{"arcs":[[0,1,2,3,4]],"type":"Polygon","properties":{"iso_a2":"MT","iso_3166_2":"MT-21","type":"","type_en":"","name_en":"Kalkara","name":"Kalkara","featurecla":"Admin-1 states provinces"}},{"arcs":[[5,-5,6,7,8,9,10]],"type":"Polygon","properties":{"iso_a2":"MT","iso_3166_2":"MT-60","type":"","type_en":"","name_en":"Valletta","name":"Valletta","featurecla":"Admin-1 states provinces"}},{"arcs":[[11,-11,12,13]],"type":"Polygon","properties":{"iso_a2":"MT","iso_3166_2":"MT-56","type":"","type_en":"","name_en":"Sliema","name":"Sliema","featurecla":"Admin-1 states provinces"}},{"arcs":[[14,-14,15,16,17,18]],"type":"Polygon","properties":{"iso_a2":"MT","iso_3166_2":"MT-48","type":"","type_en":"","name_en":"St. Julian's","name":"San Giljan","featurecla":"Admin-1 states provinces"}},{"arcs":[[19,-19,20,21]],"type":"Polygon","properties":{"iso_a2":"MT","iso_3166_2":"MT-40","type":"","type_en":"","name_en":"Pembroke","name":"Pembroke","featurecla":"Admin-1 states provinces"}},{"arcs":[[22,-22,23,24,25,26,27,28]],"type":"Polygon","properties":{"iso_a2":"MT","iso_3166_2":"MT-38","type":"","type_en":"","name_en":"Naxxar","name":"Naxxar","featurecla":"Admin-1 states provinces"}},{"arcs":[[29,-29,30,31,32]],"type":"Polygon","properties":{"iso_a2":"MT","iso_3166_2":"MT-51","type":"","type_en":"","name_en":"St. Paul's Bay","name":"San Pawl il-Bahar","featurecla":"Admin-1 states provinces"}},{"arcs":[[33,-33,34]],"type":"Polygon","properties":{"iso_a2":"MT","iso_3166_2":"MT-30","type":"","type_en":"","name_en":"Mellieħa","name":"Mellieħa","featurecla":"Admin-1 states provinces"}},{"arcs":[[35,-35,-32,36,37]],"type":"Polygon","properties":{"iso_a2":"MT","iso_3166_2":"MT-31","type":"","type_en":"","name_en":"Mġarr","name":"Mġarr","featurecla":"Admin-1 states provinces"}},{"arcs":[[38,-38,39,40,41,42,43,44,45]],"type":"Polygon","properties":{"iso_a2":"MT","iso_3166_2":"MT-46","type":"","type_en":"","name_en":"Rabat","name":"Rabat","featurecla":"Admin-1 states provinces"}},{"arcs":[[46,-46,47]],"type":"Polygon","properties":{"iso_a2":"MT","iso_3166_2":"MT-07","type":"","type_en":"","name_en":"Dingli","name":"Dingli","featurecla":"Admin-1 states provinces"}},{"arcs":[[48,-48,-45,49,50,51,52,53]],"type":"Polygon","properties":{"iso_a2":"MT","iso_3166_2":"MT-55","type":"","type_en":"","name_en":"Siġġiewi","name":"Siġġiewi","featurecla":"Admin-1 states provinces"}},{"arcs":[[54,-54,55,56]],"type":"Polygon","properties":{"iso_a2":"MT","iso_3166_2":"MT-44","type":"","type_en":"","name_en":"Qrendi","name":"Qrendi","featurecla":"Admin-1 states provinces"}},{"arcs":[[57,-57,58,59,60,61,62]],"type":"Polygon","properties":{"iso_a2":"MT","iso_3166_2":"MT-68","type":"","type_en":"","name_en":"Żurrieq","name":"Żurrieq","featurecla":"Admin-1 states provinces"}},{"arcs":[[63,-63,64,65]],"type":"Polygon","properties":{"iso_a2":"MT","iso_3166_2":"MT-05","type":"","type_en":"","name_en":"Birżebbuġa","name":"Birżebbuġa","featurecla":"Admin-1 states provinces"}},{"arcs":[[66,-66,67,68,69]],"type":"Polygon","properties":{"iso_a2":"MT","iso_3166_2":"MT-28","type":"","type_en":"","name_en":"Marsaxlokk","name":"Marsaxlokk","featurecla":"Admin-1 states provinces"}},{"arcs":[[70,-70,71,72]],"type":"Polygon","properties":{"iso_a2":"MT","iso_3166_2":"MT-27","type":"","type_en":"","name_en":"Marsaskala","name":"Marsaskala","featurecla":"Admin-1 states provinces"}},{"arcs":[[73,-73,74,75,76,-3,77]],"type":"Polygon","properties":{"iso_a2":"MT","iso_3166_2":"MT-64","type":"","type_en":"","name_en":"Żabbar","name":"Żabbar","featurecla":"Admin-1 states provinces"}},{"arcs":[[78,-78,-2]],"type":"Polygon","properties":{"iso_a2":"MT","iso_3166_2":"MT-63","type":"","type_en":"","name_en":"Xgħajra","name":"Xgħajra","featurecla":"Admin-1 states provinces"}},{"arcs":[[79,80,81]],"type":"Polygon","properties":{"iso_a2":"MT","iso_3166_2":"MT-50","type":"","type_en":"","name_en":"Saint Lawrence","name":"San Lawrenz","featurecla":"Admin-1 states provinces"}},{"arcs":[[82,-82,83,84,85,86,87]],"type":"Polygon","properties":{"iso_a2":"MT","iso_3166_2":"MT-22","type":"","type_en":"","name_en":"Kerċem","name":"Kerċem","featurecla":"Admin-1 states provinces"}},{"arcs":[[88,-88,89,90,91]],"type":"Polygon","properties":{"iso_a2":"MT","iso_3166_2":"MT-36","type":"","type_en":"","name_en":"Munxar","name":"Munxar","featurecla":"Admin-1 states provinces"}},{"arcs":[[92,-92,93,94]],"type":"Polygon","properties":{"iso_a2":"MT","iso_3166_2":"MT-52","type":"","type_en":"","name_en":"Sannat","name":"Sannat","featurecla":"Admin-1 states provinces"}},{"arcs":[[95,-95,96,97,98]],"type":"Polygon","properties":{"iso_a2":"MT","iso_3166_2":"MT-13","type":"","type_en":"","name_en":"Għajnsielem","name":"Għajnsielem","featurecla":"Admin-1 states provinces"}},{"arcs":[[99,-99,100]],"type":"Polygon","properties":{"iso_a2":"MT","iso_3166_2":"MT-42","type":"","type_en":"","name_en":"Qala","name":"Qala","featurecla":"Admin-1 states provinces"}},{"arcs":[[101,-101,-98,102]],"type":"Polygon","properties":{"iso_a2":"MT","iso_3166_2":"MT-37","type":"","type_en":"","name_en":"Nadur","name":"Nadur","featurecla":"Admin-1 states provinces"}},{"arcs":[[103,-103,104,105,106]],"type":"Polygon","properties":{"iso_a2":"MT","iso_3166_2":"MT-61","type":"","type_en":"","name_en":"Xagħra","name":"Xagħra","featurecla":"Admin-1 states provinces"}},{"arcs":[[107,-107,108,109]],"type":"Polygon","properties":{"iso_a2":"MT","iso_3166_2":"MT-65","type":"","type_en":"","name_en":"Żebbuġ","name":"Żebbuġ","featurecla":"Admin-1 states provinces"}},{"arcs":[[110,-110,111,-85,112]],"type":"Polygon","properties":{"iso_a2":"MT","iso_3166_2":"MT-16","type":"","type_en":"","name_en":"Għasri","name":"Għasri","featurecla":"Admin-1 states provinces"}},{"arcs":[[113,-113,-84,-81]],"type":"Polygon","properties":{"iso_a2":"MT","iso_3166_2":"MT-14","type":"","type_en":"","name_en":"Għarb","name":"Għarb","featurecla":"Admin-1 states provinces"}},{"arcs":[[-86,-112,-109,-106,114,115]],"type":"Polygon","properties":{"iso_a2":"MT","iso_3166_2":"MT-45","type":"","type_en":"","name_en":"Victoria","name":"Victoria","featurecla":"Admin-1 states provinces"}},{"arcs":[[-87,-116,116,-90]],"type":"Polygon","properties":{"iso_a2":"MT","iso_3166_2":"MT-10","type":"","type_en":"","name_en":"Fontana","name":"Fontana, Gozo","featurecla":"Admin-1 states provinces"}},{"arcs":[[-91,-117,-115,-105,-97,-94]],"type":"Polygon","properties":{"iso_a2":"MT","iso_3166_2":"MT-62","type":"","type_en":"","name_en":"Xewkija","name":"Xewkija","featurecla":"Admin-1 states provinces"}},{"arcs":[[-37,-31,-28,117,118,-40]],"type":"Polygon","properties":{"iso_a2":"MT","iso_3166_2":"MT-32","type":"","type_en":"","name_en":"Mosta","name":"Mosta","featurecla":"Admin-1 states provinces"}},{"arcs":[[-118,-27,119,120,121]],"type":"Polygon","properties":{"iso_a2":"MT","iso_3166_2":"MT-24","type":"","type_en":"","name_en":"Lija","name":"Lija","featurecla":"Admin-1 states provinces"}},{"arcs":[[-122,122,123,124,125,126,-41,-119]],"type":"Polygon","properties":{"iso_a2":"MT","iso_3166_2":"MT-01","type":"","type_en":"","name_en":"Attard","name":"Attard","featurecla":"Admin-1 states provinces"}},{"arcs":[[-42,-127,127]],"type":"Polygon","properties":{"iso_a2":"MT","iso_3166_2":"MT-35","type":"","type_en":"","name_en":"Mtarfa","name":"Mtarfa","featurecla":"Admin-1 states provinces"}},{"arcs":[[-128,-126,-43]],"type":"Polygon","properties":{"iso_a2":"MT","iso_3166_2":"MT-29","type":"","type_en":"","name_en":"Mdina","name":"Mdina","featurecla":"Admin-1 states provinces"}},{"arcs":[[-44,-125,128,-50]],"type":"Polygon","properties":{"iso_a2":"MT","iso_3166_2":"MT-66","type":"","type_en":"","name_en":"Żebbuġ Gozo","name":"Żebbuġ","featurecla":"Admin-1 states provinces"}},{"arcs":[[-129,-124,129,130,131,132,133,-51]],"type":"Polygon","properties":{"iso_a2":"MT","iso_3166_2":"MT-43","type":"","type_en":"","name_en":"Qormi","name":"Qormi","featurecla":"Admin-1 states provinces"}},{"arcs":[[-24,-21,-18,134,135]],"type":"Polygon","properties":{"iso_a2":"MT","iso_3166_2":"MT-57","type":"","type_en":"","name_en":"Swieqi","name":"Swieqi","featurecla":"Admin-1 states provinces"}},{"arcs":[[-25,-136,136,137]],"type":"Polygon","properties":{"iso_a2":"MT","iso_3166_2":"MT-15","type":"","type_en":"","name_en":"Għargħur","name":"Għargħur","featurecla":"Admin-1 states provinces"}},{"arcs":[[-17,138,139,140,141,-137,-135]],"type":"Polygon","properties":{"iso_a2":"MT","iso_3166_2":"MT-49","type":"","type_en":"","name_en":"San Ġwann","name":"San Ġwann","featurecla":"Admin-1 states provinces"}},{"arcs":[[-138,-142,142,143,-120,-26]],"type":"Polygon","properties":{"iso_a2":"MT","iso_3166_2":"MT-19","type":"","type_en":"","name_en":"Iklin","name":"Iklin","featurecla":"Admin-1 states provinces"}},{"arcs":[[-143,-141,144,145,-130,146]],"type":"Polygon","properties":{"iso_a2":"MT","iso_3166_2":"MT-04","type":"","type_en":"","name_en":"Birkirkara","name":"Birkirkara","featurecla":"Admin-1 states provinces"}},{"arcs":[[-144,-147,-123,-121]],"type":"Polygon","properties":{"iso_a2":"MT","iso_3166_2":"MT-02","type":"","type_en":"","name_en":"Balzan","name":"Balzan","featurecla":"Admin-1 states provinces"}},{"arcs":[[-131,-146,147,148]],"type":"Polygon","properties":{"iso_a2":"MT","iso_3166_2":"MT-54","type":"","type_en":"","name_en":"Santa Venera","name":"Santa Venera","featurecla":"Admin-1 states provinces"}},{"arcs":[[-132,-149,149,150,151]],"type":"Polygon","properties":{"iso_a2":"MT","iso_3166_2":"MT-18","type":"","type_en":"","name_en":"Ħamrun","name":"Ħamrun","featurecla":"Admin-1 states provinces"}},{"arcs":[[-133,-152,152,153,154]],"type":"Polygon","properties":{"iso_a2":"MT","iso_3166_2":"MT-26","type":"","type_en":"","name_en":"Marsa","name":"Marsa","featurecla":"Admin-1 states provinces"}},{"arcs":[[-134,-155,155,156,157,158,-62,159,160,161,-52]],"type":"Polygon","properties":{"iso_a2":"MT","iso_3166_2":"MT-25","type":"","type_en":"","name_en":"Luqa","name":"Luqa","featurecla":"Admin-1 states provinces"}},{"arcs":[[-53,-162,162,-59,-56]],"type":"Polygon","properties":{"iso_a2":"MT","iso_3166_2":"MT-33","type":"","type_en":"","name_en":"Mqabba","name":"Mqabba","featurecla":"Admin-1 states provinces"}},{"arcs":[[-60,-163,-161,163]],"type":"Polygon","properties":{"iso_a2":"MT","iso_3166_2":"MT-23","type":"","type_en":"","name_en":"Kirkop","name":"Kirkop","featurecla":"Admin-1 states provinces"}},{"arcs":[[-164,-160,-61]],"type":"Polygon","properties":{"iso_a2":"MT","iso_3166_2":"MT-47","type":"","type_en":"","name_en":"Safi","name":"Safi","featurecla":"Admin-1 states provinces"}},{"arcs":[[-65,-159,164,165,166,167,-68]],"type":"Polygon","properties":{"iso_a2":"MT","iso_3166_2":"MT-17","type":"","type_en":"","name_en":"Għaxaq","name":"Għaxaq","featurecla":"Admin-1 states provinces"}},{"arcs":[[-168,168,169,-75,-72,-69]],"type":"Polygon","properties":{"iso_a2":"MT","iso_3166_2":"MT-67","type":"","type_en":"","name_en":"Żejtun","name":"Żejtun","featurecla":"Admin-1 states provinces"}},{"arcs":[[-170,170,171,172,-76]],"type":"Polygon","properties":{"iso_a2":"MT","iso_3166_2":"MT-08","type":"","type_en":"","name_en":"Fgura","name":"Fgura","featurecla":"Admin-1 states provinces"}},{"arcs":[[-169,-167,173,174,-171]],"type":"Polygon","properties":{"iso_a2":"MT","iso_3166_2":"MT-59","type":"","type_en":"","name_en":"Tarxien","name":"Tarxien","featurecla":"Admin-1 states provinces"}},{"arcs":[[-166,175,-157,-174]],"type":"Polygon","properties":{"iso_a2":"MT","iso_3166_2":"MT-53","type":"","type_en":"","name_en":"Santa Luċija","name":"Santa Luċija","featurecla":"Admin-1 states provinces"}},{"arcs":[[-165,-158,-176]],"type":"Polygon","properties":{"iso_a2":"MT","iso_3166_2":"MT-11","type":"","type_en":"","name_en":"Gudja","name":"Gudja","featurecla":"Admin-1 states provinces"}},{"arcs":[[-175,-156,-154,176,177,178,-172]],"type":"Polygon","properties":{"iso_a2":"MT","iso_3166_2":"MT-39","type":"","type_en":"","name_en":"Paola","name":"Paola","featurecla":"Admin-1 states provinces"}},{"arcs":[[-10,179,180,-139,-16,-13]],"type":"Polygon","properties":{"iso_a2":"MT","iso_3166_2":"MT-12","type":"","type_en":"","name_en":"Gżira","name":"Gżira","featurecla":"Admin-1 states provinces"}},{"arcs":[[181,-9,182,-177,-153,-151,183]],"type":"Polygon","properties":{"iso_a2":"MT","iso_3166_2":"MT-09","type":"","type_en":"","name_en":"Floriana","name":"Floriana","featurecla":"Admin-1 states provinces"}},{"arcs":[[-182,184,185,-180]],"type":"Polygon","properties":{"iso_a2":"MT","iso_3166_2":"MT-58","type":"","type_en":"","name_en":"Ta' Xbiex","name":"Ta' Xbiex","featurecla":"Admin-1 states provinces"}},{"arcs":[[-8,186,187,-178,-183]],"type":"Polygon","properties":{"iso_a2":"MT","iso_3166_2":"MT-20","type":"","type_en":"","name_en":"Senglea","name":"Isla","featurecla":"Admin-1 states provinces"}},{"arcs":[[-77,-173,-179,-188,188]],"type":"Polygon","properties":{"iso_a2":"MT","iso_3166_2":"MT-06","type":"","type_en":"","name_en":"Cospicua","name":"Cospicua","featurecla":"Admin-1 states provinces"}},{"arcs":[[-184,-150,189,-185]],"type":"Polygon","properties":{"iso_a2":"MT","iso_3166_2":"MT-41","type":"","type_en":"","name_en":"Pietà","name":"Pietà","featurecla":"Admin-1 states provinces"}},{"arcs":[[-148,-145,-140,-181,-186,-190]],"type":"Polygon","properties":{"iso_a2":"MT","iso_3166_2":"MT-34","type":"","type_en":"","name_en":"Msida","name":"Msida","featurecla":"Admin-1 states provinces"}},{"arcs":[[-187,-7,-4,-189]],"type":"Polygon","properties":{"iso_a2":"MT","iso_3166_2":"MT-03","type":"","type_en":"","name_en":"Birgu","name":"Birgu","featurecla":"Admin-1 states provinces"}}]}}}