{"type":"Topology","arcs":[[[177,414],[56,21]],[[233,435],[4,-97]],[[237,338],[-60,76]],[[135,398],[42,16]],[[237,338],[-7,-45]],[[230,293],[-95,105]],[[82,379],[53,19]],[[230,293],[-6,-42]],[[224,251],[-142,128]],[[46,365],[36,14]],[[224,251],[-4,-28]],[[220,223],[-174,142]],[[23,282],[23,83]],[[220,223],[-6,-35]],[[214,188],[-115,31]],[[99,219],[-76,63]],[[0,190],[23,92]],[[99,219],[-27,-23]],[[72,196],[-72,-6]],[[36,105],[-36,85]],[[72,196],[-3,-35],[10,-43]],[[79,118],[-43,-13]],[[69,29],[-33,76]],[[79,118],[16,-27]],[[95,91],[-13,-9],[-13,-53]],[[191,8],[-122,21]],[[95,91],[40,31]],[[135,122],[56,-114]],[[342,130],[-13,-41],[-96,-89],[-42,8]],[[135,122],[75,33]],[[210,155],[73,-17],[59,-8]],[[371,287],[7,-46],[-36,-111]],[[210,155],[4,33]],[[237,338],[56,-33],[78,-18]],[[358,381],[13,-94]],[[237,338],[121,43]],[[233,435],[125,-54]]],"transform":{"scale":[0.00013534875873714644,0.00014098992835514786],"translate":[166.90702016937777,-0.5517566065378929]},"objects":{"features":{"type":"GeometryCollection","geometries":[{"arcs":[[0,1,2]],"type":"Polygon","properties":{"iso_a2":"NR","iso_3166_2":"NR-03","type":"","type_en":"","name_en":"Anetan","name":"Anetan","featurecla":"Admin-1 states provinces"}},{"arcs":[[3,-3,4,5]],"type":"Polygon","properties":{"iso_a2":"NR","iso_3166_2":"NR-09","type":"","type_en":"","name_en":"Ewa","name":"Ewa","featurecla":"Admin-1 states provinces"}},{"arcs":[[6,-6,7,8]],"type":"Polygon","properties":{"iso_a2":"NR","iso_3166_2":"NR-05","type":"","type_en":"","name_en":"Baiti","name":"Baiti","featurecla":"Admin-1 states provinces"}},{"arcs":[[9,-9,10,11]],"type":"Polygon","properties":{"iso_a2":"NR","iso_3166_2":"NR-13","type":"","type_en":"","name_en":"Uaboe","name":"Uaboe","featurecla":"Admin-1 states provinces"}},{"arcs":[[12,-12,13,14,15]],"type":"Polygon","properties":{"iso_a2":"NR","iso_3166_2":"NR-12","type":"","type_en":"","name_en":"Nibok","name":"Nibok","featurecla":"Admin-1 states provinces"}},{"arcs":[[16,-16,17,18]],"type":"Polygon","properties":{"iso_a2":"NR","iso_3166_2":"NR-08","type":"","type_en":"","name_en":"Denigomodu","name":"Denigomodu","featurecla":"Admin-1 states provinces"}},{"arcs":[[19,-19,20,21]],"type":"Polygon","properties":{"iso_a2":"NR","iso_3166_2":"NR-01","type":"","type_en":"","name_en":"Aiwo","name":"Aiwo","featurecla":"Admin-1 states provinces"}},{"arcs":[[22,-22,23,24]],"type":"Polygon","properties":{"iso_a2":"NR","iso_3166_2":"NR-06","type":"","type_en":"","name_en":"Boe","name":"Boe","featurecla":"Admin-1 states provinces"}},{"arcs":[[25,-25,26,27]],"type":"Polygon","properties":{"iso_a2":"NR","iso_3166_2":"NR-14","type":"","type_en":"","name_en":"Yaren","name":"Yaren","featurecla":"Admin-1 states provinces"}},{"arcs":[[28,-28,29,30]],"type":"Polygon","properties":{"iso_a2":"NR","iso_3166_2":"NR-11","type":"","type_en":"","name_en":"Meneng","name":"Meneng","featurecla":"Admin-1 states provinces"}},{"arcs":[[31,-31,32,-14,-11,-8,-5,33]],"type":"Polygon","properties":{"iso_a2":"NR","iso_3166_2":"NR-04","type":"","type_en":"","name_en":"Anibare","name":"Anibare","featurecla":"Admin-1 states provinces"}},{"arcs":[[34,-34,35]],"type":"Polygon","properties":{"iso_a2":"NR","iso_3166_2":"NR-10","type":"","type_en":"","name_en":"Ijuw","name":"Ijuw","featurecla":"Admin-1 states provinces"}},{"arcs":[[36,-36,-2]],"type":"Polygon","properties":{"iso_a2":"NR","iso_3166_2":"NR-02","type":"","type_en":"","name_en":"Anabar","name":"Anabar","featurecla":"Admin-1 states provinces"}},{"arcs":[[-33,-30,-27,-24,-21,-18,-15]],"type":"Polygon","properties":{"iso_a2":"NR","iso_3166_2":"NR-07","type":"","type_en":"","name_en":"Buada","name":"Buada","featurecla":"Admin-1 states provinces"}}]}}}