{"type":"Topology","arcs":[[[10823,12366],[40,-18],[6,-42],[-46,-64],[30,-39],[-77,-22],[-49,-61],[-28,48],[124,198]],[[11486,13024],[-51,-13],[51,-79],[-19,-21],[-112,-10],[-113,-86],[-97,-9],[-55,49],[6,100],[111,-100],[66,26],[121,94],[23,28],[-9,88],[47,-15],[31,-52]],[[11512,13228],[139,-45],[54,-48],[-18,-60],[-36,-8],[-70,102],[-80,3],[-64,-46],[0,82],[75,20]],[[11708,13689],[-58,35],[73,78],[51,38],[-2,41]],[[11772,13881],[132,-13],[46,42],[45,-48],[29,-3]],[[12024,13859],[-41,-92]],[[11983,13767],[-46,-89]],[[11937,13678],[-48,-115]],[[11889,13563],[-126,148],[-55,-22]],[[11569,13551],[46,55],[49,-23],[64,16],[17,41],[-37,49]],[[11889,13563],[-52,-127]],[[11837,13436],[-54,28],[-26,59],[-67,28],[-121,0]],[[11647,13354],[-39,101],[-56,23],[17,73]],[[11837,13436],[-45,-58],[-78,-45],[-67,21]],[[11935,13404],[25,-112],[-34,-50],[-89,25],[-38,-9],[-36,-41],[-56,-3],[-60,140]],[[11837,13436],[98,-32]],[[12053,13608],[-18,-49],[-82,-91],[-18,-64]],[[11937,13678],[52,-73],[64,3]],[[12044,13732],[35,-63],[-26,-61]],[[11983,13767],[61,-35]],[[12156,13913],[-45,-100],[-67,-81]],[[12024,13859],[12,81]],[[12036,13940],[120,-27]],[[12163,14198],[11,-142],[-18,-143]],[[12036,13940],[-1,78]],[[12035,14018],[41,10],[20,50],[-20,114]],[[12076,14192],[87,6]],[[12076,14192],[-38,102],[4,48],[63,-23],[58,-121]],[[11772,13881],[36,63],[41,37],[58,21],[128,16]],[[38,295],[65,34],[78,4],[29,-34],[-40,-46],[-69,-32],[-76,-12],[-25,32],[38,54]],[[2275,86],[53,-11],[23,-41],[-62,-34],[-57,11],[-12,34],[55,41]],[[10439,11796],[-51,43],[-29,60],[11,46],[69,2],[46,-30],[15,-47],[-15,-47],[-46,-27]],[[12334,15429],[43,-1],[18,-40],[-32,-73],[-58,-26],[-31,32],[1,45],[59,63]]],"transform":{"scale":[0.00029015363151937404,0.0003336356874078008],"translate":[131.13110898829333,2.9490170203275454]},"objects":{"features":{"type":"GeometryCollection","geometries":[{"arcs":[[0]],"type":"Polygon","properties":{"iso_a2":"PW","iso_3166_2":"PW-350","type":"","type_en":"","name_en":"Peleliu","name":"Peleliu","featurecla":"Admin-1 states provinces"}},{"arcs":[[[1]],[[2]]],"type":"MultiPolygon","properties":{"iso_a2":"PW","iso_3166_2":"PW-150","type":"","type_en":"","name_en":"Koror","name":"Koror","featurecla":"Admin-1 states provinces"}},{"arcs":[[3,4,5,6,7,8]],"type":"Polygon","properties":{"iso_a2":"PW","iso_3166_2":"PW-227","type":"","type_en":"","name_en":"Ngeremlengui","name":"Ngeremlengui","featurecla":"Admin-1 states provinces"}},{"arcs":[[9,-9,10,11]],"type":"Polygon","properties":{"iso_a2":"PW","iso_3166_2":"PW-224","type":"","type_en":"","name_en":"Ngatpang","name":"Ngatpang","featurecla":"Admin-1 states provinces"}},{"arcs":[[12,-12,13]],"type":"Polygon","properties":{"iso_a2":"PW","iso_3166_2":"PW-002","type":"","type_en":"","name_en":"Aimeliik","name":"Aimeliik","featurecla":"Admin-1 states provinces"}},{"arcs":[[14,-14,15]],"type":"Polygon","properties":{"iso_a2":"PW","iso_3166_2":"PW-004","type":"","type_en":"","name_en":"Airai","name":"Airai","featurecla":"Admin-1 states provinces"}},{"arcs":[[16,-16,-11,-8,17]],"type":"Polygon","properties":{"iso_a2":"PW","iso_3166_2":"PW-226","type":"","type_en":"","name_en":"Ngchesar","name":"Ngchesar","featurecla":"Admin-1 states provinces"}},{"arcs":[[18,-18,-7,19]],"type":"Polygon","properties":{"iso_a2":"PW","iso_3166_2":"PW-212","type":"","type_en":"","name_en":"Melekeok","name":"Melekeok","featurecla":"Admin-1 states provinces"}},{"arcs":[[20,-20,-6,21,22]],"type":"Polygon","properties":{"iso_a2":"PW","iso_3166_2":"PW-228","type":"","type_en":"","name_en":"Ngiwal","name":"Ngiwal","featurecla":"Admin-1 states provinces"}},{"arcs":[[23,-23,24,25,26]],"type":"Polygon","properties":{"iso_a2":"PW","iso_3166_2":"PW-214","type":"","type_en":"","name_en":"Ngaraard","name":"Ngaraard","featurecla":"Admin-1 states provinces"}},{"arcs":[[27,-27]],"type":"Polygon","properties":{"iso_a2":"PW","iso_3166_2":"PW-218","type":"","type_en":"","name_en":"Ngarchelong","name":"Ngarchelong","featurecla":"Admin-1 states provinces"}},{"arcs":[[28,-25,-22,-5]],"type":"Polygon","properties":{"iso_a2":"PW","iso_3166_2":"PW-222","type":"","type_en":"","name_en":"Ngardmau","name":"Ngardmau","featurecla":"Admin-1 states provinces"}},{"arcs":[[[29]],[[30]]],"type":"MultiPolygon","properties":{"iso_a2":"PW","iso_3166_2":"PW-050","type":"","type_en":"","name_en":"Hatohobei","name":"Hatobohei","featurecla":"Admin-1 states provinces"}},{"type":null,"properties":{"iso_a2":"PW","iso_3166_2":"PW-370","type":"","type_en":"","name_en":"Sonsorol","name":"Sonsorol","featurecla":"Admin-1 states provinces"}},{"arcs":[[31]],"type":"Polygon","properties":{"iso_a2":"PW","iso_3166_2":"PW-010","type":"","type_en":"","name_en":"Angaur","name":"Angaur","featurecla":"Admin-1 states provinces"}},{"arcs":[[32]],"type":"Polygon","properties":{"iso_a2":"PW","iso_3166_2":"PW-100","type":"","type_en":"","name_en":"Kayangel","name":"Kayangel","featurecla":"Admin-1 states provinces"}}]}}}