{"type":"Topology","arcs":[[[657,575],[-111,-41],[-53,-61],[-50,65],[-53,-45]],[[390,493],[-25,54],[0,51],[-62,-8],[-44,19]],[[259,609],[164,76],[181,28],[42,-73],[11,-65]],[[657,575],[11,-67],[-6,-59]],[[662,449],[-80,-56],[-50,-2],[-31,-41],[-53,-24]],[[448,326],[-53,22],[-25,32],[20,113]],[[662,449],[-8,-77],[-44,-80],[-34,-46]],[[576,246],[-61,-6]],[[515,240],[-22,15]],[[493,255],[11,50],[-56,21]],[[576,246],[3,-49],[-86,-134]],[[493,63],[-9,56],[11,78],[20,43]],[[493,63],[-25,-39],[-120,-15]],[[348,9],[-39,84]],[[309,93],[25,32],[11,52]],[[345,177],[56,0],[47,22],[45,56]],[[348,9],[-75,-9],[-53,24],[-134,62],[-61,117]],[[25,203],[120,-6],[78,-31],[5,-54],[25,-19],[56,0]],[[25,203],[-25,52]],[[0,255],[136,30],[67,52],[0,45]],[[203,382],[81,-56],[58,-101],[3,-48]],[[0,255],[61,190],[131,119]],[[192,564],[58,-54],[3,-43],[-30,-22],[-20,-63]],[[192,564],[67,45]]],"transform":{"scale":[0.00015983909649349245,0.00012672250184947356],"translate":[12.385834351832784,43.892133445652476]},"objects":{"features":{"type":"GeometryCollection","geometries":[{"arcs":[[0,1,2]],"type":"Polygon","properties":{"iso_a2":"SM","iso_3166_2":"SM-09","type":"","type_en":"","name_en":"Serravalle","name":"Serravalle","featurecla":"Admin-1 states provinces"}},{"arcs":[[3,4,5,-1]],"type":"Polygon","properties":{"iso_a2":"SM","iso_3166_2":"SM-03","type":"","type_en":"","name_en":"Domagnano","name":"Domagnano","featurecla":"Admin-1 states provinces"}},{"arcs":[[6,7,8,9,-5]],"type":"Polygon","properties":{"iso_a2":"SM","iso_3166_2":"SM-04","type":"","type_en":"","name_en":"Faetano","name":"Faetano","featurecla":"Admin-1 states provinces"}},{"arcs":[[10,11,-8]],"type":"Polygon","properties":{"iso_a2":"SM","iso_3166_2":"SM-08","type":"","type_en":"","name_en":"Montegiardino","name":"Montegiardino","featurecla":"Admin-1 states provinces"}},{"arcs":[[12,13,14,15,-9,-12]],"type":"Polygon","properties":{"iso_a2":"SM","iso_3166_2":"SM-05","type":"","type_en":"","name_en":"Fiorentino","name":"Fiorentino","featurecla":"Admin-1 states provinces"}},{"arcs":[[16,17,-14]],"type":"Polygon","properties":{"iso_a2":"SM","iso_3166_2":"SM-02","type":"","type_en":"","name_en":"Chiesanuova","name":"Chiesanuova","featurecla":"Admin-1 states provinces"}},{"arcs":[[18,19,20,-15,-18]],"type":"Polygon","properties":{"iso_a2":"SM","iso_3166_2":"SM-07","type":"","type_en":"","name_en":"San Marino","name":"San Marino","featurecla":"Admin-1 states provinces"}},{"arcs":[[21,22,-20]],"type":"Polygon","properties":{"iso_a2":"SM","iso_3166_2":"SM-01","type":"","type_en":"","name_en":"Acquaviva","name":"Acquaviva","featurecla":"Admin-1 states provinces"}},{"arcs":[[23,-2,-6,-10,-16,-21,-23]],"type":"Polygon","properties":{"iso_a2":"SM","iso_3166_2":"SM-06","type":"","type_en":"","name_en":"Borgo Maggiore","name":"Borgo Maggiore","featurecla":"Admin-1 states provinces"}}]}}}