{"type":"Topology","arcs":[[[52596,182013],[44,-17],[-65,-41],[-27,21],[48,37]],[[52581,181726],[65,-9],[-128,-110],[-38,-9],[-15,26],[12,41],[104,61]],[[116172,134],[140,40],[-24,-101],[-81,-73],[-35,134]],[[6047,6213],[59,9],[12,-47],[-27,-29],[-44,67]],[[6222,6524],[3,-70],[-32,29],[29,41]],[[5040,12513],[-29,125],[29,18],[0,-143]],[[2302152,208775],[71,8],[57,44],[18,78],[-42,125],[89,-84],[30,-142],[-57,-93],[-166,64]],[[405,303550],[42,-37],[-15,-29],[-69,-6],[42,72]],[[211,303585],[-44,-72],[-51,-56],[-56,-37],[-60,-12],[27,99],[50,61],[63,26],[71,-9]],[[685041,199600],[20,-17],[96,-6],[29,-49],[-3,-134],[-32,-29],[-66,17],[-18,64],[-71,114],[6,40],[39,0]],[[102581,66611],[20,-49],[-23,-96],[-78,-44],[-122,23],[3,35],[24,38],[80,76],[-80,-18],[-45,20],[-44,6],[-9,41],[202,0],[72,-32]]],"transform":{"scale":[0.00014942915799747222,0.00009421847121010259],"translate":[-177.3894119726098,-0.38884715025876915]},"objects":{"features":{"type":"GeometryCollection","geometries":[{"arcs":[[[0]],[[1]]],"type":"MultiPolygon","properties":{"iso_a2":"UM","iso_3166_2":"UM-67","type":"","type_en":"","name_en":"Johnston Atoll","name":"Johnston Atoll","featurecla":"Admin-1 states provinces"}},{"arcs":[[2]],"type":"Polygon","properties":{"iso_a2":"UM","iso_3166_2":"UM-86","type":"","type_en":"","name_en":"Jarvis Island","name":"Jarvis Island","featurecla":"Admin-1 states provinces"}},{"arcs":[[[3]],[[4]]],"type":"MultiPolygon","properties":{"iso_a2":"UM","iso_3166_2":"UM-81","type":"","type_en":"","name_en":"Baker Island","name":"Baker Island","featurecla":"Admin-1 states provinces"}},{"arcs":[[5]],"type":"Polygon","properties":{"iso_a2":"UM","iso_3166_2":"UM-84","type":"","type_en":"","name_en":"Howland Island","name":"Howland Island","featurecla":"Admin-1 states provinces"}},{"arcs":[[6]],"type":"Polygon","properties":{"iso_a2":"UM","iso_3166_2":"UM-79","type":"","type_en":"","name_en":"Wake Island","name":"Wake Atoll","featurecla":"Admin-1 states provinces"}},{"arcs":[[[7]],[[8]]],"type":"MultiPolygon","properties":{"iso_a2":"UM","iso_3166_2":"UM-71","type":"","type_en":"","name_en":"Midway Atoll","name":"Midway Islands","featurecla":"Admin-1 states provinces"}},{"arcs":[[9]],"type":"Polygon","properties":{"iso_a2":"UM","iso_3166_2":"UM-76","type":"","type_en":"","name_en":"Navassa Island","name":"Navassa Island","featurecla":"Admin-1 states provinces"}},{"arcs":[[10]],"type":"Polygon","properties":{"iso_a2":"UM","iso_3166_2":"UM-95","type":"","type_en":"","name_en":"Palmyra Atoll","name":"Palmyra Atoll","featurecla":"Admin-1 states provinces"}}]}}}